ORBCOMM-X               
1 21576U 91050C   25197.77208462  .00000199  00000+0  71957-4 0  9997
2 21576  98.3421 263.7673 0004916  96.9315 263.2435 14.43279685786383
ORBCOMM FM01            
1 23545U 95017A   25197.86868360  .00004030  00000+0  42260-3 0  9993
2 23545  69.9644   0.1057 0005507 265.9215  94.1310 14.90310715616933
ORBCOMM FM02            
1 23546U 95017B   25197.92790901  .00003854  00000+0  39552-3 0  9999
2 23546  69.9655  19.2517 0006859 265.3667  94.6705 14.91217576616591
ORBCOMM FM10            
1 25113U 97084B   25197.80835320  .00000616  00000+0  21301-3 0  9995
2 25113  45.0138 228.0959 0005213 332.9986  27.0594 14.45658326620808
ORBCOMM FM11            
1 25114U 97084C   25197.81803252  .00000613  00000+0  21341-3 0  9997
2 25114  45.0124 228.7363 0005832 338.3455  21.7149 14.45408472445760
ORBCOMM FM12            
1 25115U 97084D   25197.78008935  .00000611  00000+0  21266-3 0  9993
2 25115  45.0130 228.6653 0005123 330.6911  29.3653 14.45428514445554
ORBCOMM FM09            
1 25116U 97084E   25197.81495946  .00000587  00000+0  20638-3 0  9994
2 25116  45.0136 229.4605 0006669 328.3504  31.6946 14.45303383445765
